OBJECT_NAME,OBJECT_ID,EPOCH,MEAN_MOTION,ECCENTRICITY,INCLINATION,RA_OF_ASC_NODE,ARG_OF_PERICENTER,MEAN_ANOMALY,EPHEMERIS_TYPE,CLASSIFICATION_TYPE,NORAD_CAT_ID,ELEMENT_SET_NO,REV_AT_EPOCH,BSTAR,MEAN_MOTION_DOT,MEAN_MOTION_DDOT
BEIDOU-2 IGSO-1,2010-036A,2026-07-06T19:47:05.593056,1.00266641,.0059267,54.3063,162.7828,225.2322,300.9018,0,U,36828,999,5829,0,-.61E-6,0
NILESAT 201,2010-037A,2026-07-07T08:34:50.922048,1.00271802,.0005459,0.0101,123.6826,9.5863,273.7788,0,U,36830,999,5857,0,-.42E-6,0
RASCOM-QAF 1R,2010-037B,2026-07-07T08:37:35.659200,1.00271628,.0006472,0.0158,65.1026,32.7498,319.7505,0,U,36831,999,5850,0,.34E-6,0
YAOGAN-10,2010-038A,2026-07-07T13:37:01.656192,14.85414675,.0001644,97.8970,211.8090,84.6554,13.8327,0,U,36834,999,86023,.21761E-3,.1821E-4,0
AEHF-1 (USA 214),2010-039A,2026-07-07T07:02:39.766848,1.00271046,.000387,8.2672,67.7814,34.7543,318.3202,0,U,36868,999,5385,0,.157E-5,0
COSMOS 2467,2010-043A,2026-07-07T01:37:34.977216,12.42985868,.0001858,82.4556,52.5821,83.2602,85.9780,0,U,37152,999,71797,.61293E-4,.18E-6,0
STRELA 3,2010-043B,2026-07-07T11:13:49.950336,12.40792729,.0008534,82.4563,65.7843,43.4836,316.6914,0,U,37153,999,71688,.58731E-3,.89E-6,0
COSMOS 2468 (RODNIK-S 3),2010-043C,2026-07-06T17:00:29.896704,12.43747789,.0013642,82.4595,50.0119,266.7258,158.8816,0,U,37154,999,71830,-.19713E-4,.7E-7,0
YAOGAN-11,2010-047A,2026-07-07T00:48:24.073344,14.82109077,.0034694,98.3832,55.0707,176.3168,183.8305,0,U,37165,999,85103,.81903E-4,.598E-5,0
ZHEDA PIXING 1B,2010-047B,2026-07-07T11:55:51.300192,14.91284272,.0018337,97.9493,166.8361,209.6171,150.4010,0,U,37166,999,85344,.23293E-3,.2267E-4,0
ZHEDA PIXING 1C,2010-047C,2026-07-07T11:49:29.455392,14.91018105,.0017935,97.9783,170.3258,217.1650,142.8327,0,U,37167,999,85345,.17568E-3,.1683E-4,0
SBSS (USA 216),2010-048A,2026-07-07T12:45:07.356096,15.16687828,.0081965,97.7306,74.3865,132.6012,346.2175,0,U,37168,999,85555,.14933E-3,.311E-4,0
SHIJIAN-6 04A (SJ-6 04A),2010-051A,2026-07-07T12:36:21.649248,15.18225327,.0019369,97.8282,212.4192,151.1785,209.0522,0,U,37179,999,86003,.39573E-3,.8066E-4,0
SHIJIAN-6 04B (SJ-6 04B),2010-051B,2026-07-07T12:16:13.505952,14.99380082,.0006997,97.8740,194.1373,238.5490,121.5049,0,U,37180,999,85872,.11928E-3,.1398E-4,0
XM-5,2010-053A,2026-07-07T11:29:18.593952,1.00270830,.0001745,0.0646,268.2720,309.3889,124.9177,0,U,37185,999,5768,0,-.8E-7,0
GLOBALSTAR M079,2010-054A,2026-07-07T00:43:51.196224,12.62266480,.0001071,52.0047,48.2647,64.0932,83.4218,0,U,37188,999,72505,.19121E-4,-.1E-5,0
GLOBALSTAR M074,2010-054B,2026-07-06T00:48:56.272032,12.62261915,.0000832,52.0026,50.5602,79.0429,98.2745,0,U,37189,999,72553,.30384E-4,-.98E-6,0
GLOBALSTAR M076,2010-054C,2026-07-06T21:57:36.105408,12.62262107,.0001062,52.0038,48.0833,76.5581,26.0722,0,U,37190,999,72536,.32941E-4,-.98E-6,0
GLOBALSTAR M077,2010-054D,2026-07-07T06:23:40.251840,11.67547897,.0002397,51.9942,128.3305,209.9382,317.0362,0,U,37191,999,72348,.18138E-3,-.68E-6,0
GLOBALSTAR M075,2010-054E,2026-07-07T04:18:06.762816,12.62267713,.0000614,51.9946,89.3214,51.6593,112.6591,0,U,37192,999,72446,.81765E-4,-.89E-6,0
GLOBALSTAR M073,2010-054F,2026-07-07T11:10:23.066400,12.62266892,.0001105,52.0074,2.5655,85.9656,298.3537,0,U,37193,999,72649,.53254E-4,-.94E-6,0
BSAT-3B,2010-056B,2026-07-06T15:12:46.727424,1.00270945,.0002443,0.0530,225.4860,316.5972,80.5648,0,U,37207,999,5229,0,-.335E-5,0
BEIDOU-2 G4,2010-057A,2026-07-07T11:40:51.895200,1.00270786,.0005158,3.6939,68.8240,186.0298,5.7787,0,U,37210,999,5749,0,-.1E-5,0
FENGYUN 3B,2010-059A,2026-07-07T12:54:53.911872,14.14846952,.0022956,98.9607,234.6381,127.2925,338.8597,0,U,37214,999,81030,.1025E-3,.153E-5,0
COSMO-SKYMED 4,2010-060A,2026-07-07T11:51:52.542432,14.82163147,.0001504,97.8897,11.7999,86.8511,273.2874,0,U,37216,999,84757,.35847E-4,.233E-5,0
SKYTERRA 1,2010-061A,2026-07-07T10:47:07.893888,1.00271099,.0002321,5.1654,50.8144,33.3938,261.6626,0,U,37218,999,5739,0,-.106E-5,0
O/OREOS (USA 219),2010-062C,2026-07-07T00:26:49.010784,14.93830285,.0013472,71.9708,35.4141,21.2567,338.9160,0,U,37224,999,11960,.17289E-3,.1776E-4,0
FASTSAT-HSV01 (USA 220),2010-062D,2026-07-07T05:00:46.908000,14.82160118,.0014551,71.9722,115.1893,90.6961,269.5871,0,U,37225,999,11709,.71228E-4,.51E-5,0
HYLAS 1,2010-065A,2026-06-30T07:17:51.718848,1.00272596,.00010436,5.6751,72.8623,340.0885,348.6881,0,U,37237,999,701,0,.96E-6,0
INTELSAT 17 (IS-17),2010-065B,2026-07-07T12:21:00.665856,1.00272576,.0002601,0.0087,75.3621,36.1644,65.1949,0,U,37238,999,5345,0,.14E-6,0
BEIDOU-2 IGSO-2,2010-068A,2026-07-06T16:01:03.619200,1.00276802,.0056612,47.5121,271.5911,213.5272,148.0884,0,U,37256,999,5699,0,-.202E-5,0
EUTELSAT KA-SAT 9A,2010-069A,2026-07-07T08:39:20.490048,1.00269908,.0004044,0.0607,13.2155,124.5140,286.4150,0,U,37258,999,4420,0,.76E-6,0
HISPASAT 30W-5,2010-070A,2026-07-06T15:21:45.689760,1.00270016,.0005724,0.0463,104.5765,13.8936,6.5809,0,U,37264,999,5338,0,-.201E-5,0
KOREASAT 6,2010-070B,2026-07-06T19:41:13.035264,1.00272355,.0002578,0.0214,286.4075,192.8477,260.7411,0,U,37265,999,5696,0,-.96E-6,0
BEIDOU-2 IGSO-3,2011-013A,2026-07-06T12:35:26.043936,1.00262965,.0035245,62.4337,39.9702,183.2519,357.0849,0,U,37384,999,5585,0,-.17E-5,0
RESOURCESAT-2,2011-015A,2026-07-07T12:00:03.124224,14.21604835,.0011131,98.7635,255.8007,192.9948,167.0944,0,U,37387,999,78906,.42825E-4,.5E-6,0
YOUTHSAT,2011-015B,2026-07-06T22:47:16.927872,14.25638257,.0013234,98.3695,161.1136,285.7332,141.3050,0,U,37388,999,79045,.8277E-4,.155E-5,0
X-SAT,2011-015C,2026-07-07T12:21:21.615264,14.25212086,.001283,98.3525,164.5708,285.9354,74.0412,0,U,37389,999,79057,.98356E-5,-.18E-6,0
INTELSAT 28 (IS-28),2011-016A,2026-07-06T17:03:50.175360,1.00270512,.0003753,1.8534,82.3902,27.7420,38.7679,0,U,37392,999,5348,0,-.211E-5,0
YAHSAT 1A,2011-016B,2026-07-07T12:17:08.536704,1.00270508,.0002909,0.0227,45.9626,65.3478,50.9492,0,U,37393,999,4261,0,0,0
SBIRS GEO-1 (USA 230),2011-019A,2026-07-07T05:26:18.653856,1.00272178,.0001965,4.5796,53.1110,44.8112,320.6457,0,U,37481,999,5560,0,.112E-5,0
TELSTAR 14R,2011-021A,2026-07-07T07:44:46.475232,1.00270462,.0001936,0.0656,84.2630,356.2325,257.9954,0,U,37602,999,5603,0,-.265E-5,0
GSAT-8,2011-022A,2026-07-07T12:17:53.464704,1.00270850,.0002449,2.1803,81.5806,166.7729,276.6749,0,U,37605,999,5342,0,.99E-6,0
ST-2,2011-022B,2026-07-06T19:32:34.185984,1.00270340,.0001637,0.0212,80.9853,44.8324,180.1328,0,U,37606,999,5547,0,-.196E-5,0
ZHONGXING-10,2011-026A,2026-07-07T10:43:56.074656,1.00270459,.000364,1.0962,83.9885,17.0606,70.8723,0,U,37677,999,5520,0,-.174E-5,0
SJ-11-03,2011-030A,2026-07-07T12:16:49.321344,14.64358338,.0007819,97.9351,151.8205,340.0138,153.1497,0,U,37730,999,80008,.13336E-3,.659E-5,0
GLOBALSTAR M083,2011-033A,2026-07-07T09:40:11.023104,12.62263878,.0000884,51.9875,310.9578,97.4192,303.4404,0,U,37739,999,69550,.79453E-4,-.9E-6,0
GLOBALSTAR M088,2011-033B,2026-07-07T03:18:47.025792,12.62269257,.0000228,52.0185,218.2412,155.2772,240.0255,0,U,37740,999,69101,.31808E-4,-.98E-6,0
GLOBALSTAR M091,2011-033C,2026-07-06T23:47:56.464800,12.62264140,.000021,51.9967,181.6215,1.5579,28.7919,0,U,37741,999,69178,.33767E-4,-.98E-6,0
GLOBALSTAR M085,2011-033D,2026-07-07T05:47:42.328032,12.62264287,.0000598,52.0115,132.1699,24.5237,121.7098,0,U,37742,999,69232,.11725E-3,-.83E-6,0
GLOBALSTAR M081,2011-033E,2026-07-07T08:28:06.957120,12.62265340,.0000499,51.9945,134.2440,44.6716,127.7974,0,U,37743,999,69248,.7789E-4,-.9E-6,0
GLOBALSTAR M089,2011-033F,2026-07-07T03:35:26.873376,12.62267530,.0000623,51.9930,89.0185,82.0290,67.4631,0,U,37744,999,69330,.53348E-4,-.94E-6,0
SES-3,2011-035A,2026-07-07T13:27:56.423808,1.00271495,.0002097,1.3762,82.8720,20.3006,281.3491,0,U,37748,999,5479,0,-.87E-6,0
KAZSAT-2,2011-035B,2026-07-07T09:01:33.361248,1.00270993,.0001928,0.0280,144.6674,20.6064,341.9759,0,U,37749,999,5360,0,-.182E-5,0
NAVSTAR 66 (USA 232),2011-036A,2026-07-07T07:45:16.409376,2.00562028,.0141701,56.5550,331.2368,62.7972,308.0957,0,U,37753,999,10968,0,-.69E-6,0
BEIDOU-2 IGSO-4,2011-038A,2026-07-06T20:09:40.657824,1.00281732,.016007,54.6039,165.4986,231.4311,284.4062,0,U,37763,999,5484,0,.48E-6,0
SJ-11-02,2011-039A,2026-07-07T03:26:35.979936,14.64500435,.0010054,98.2599,78.2096,193.4989,301.1250,0,U,37765,999,79687,.94485E-4,.452E-5,0
ASTRA 1N,2011-041A,2026-07-07T12:07:37.423200,1.00274564,.0005789,0.0685,26.7180,83.1691,16.7138,0,U,37775,999,4473,0,.135E-5,0
BSAT-3C (JCSAT-110R),2011-041B,2026-07-07T12:33:29.219040,1.00270708,.0000093,0.0178,340.1378,258.2225,345.4652,0,U,37776,999,5067,0,-.335E-5,0
PAKSAT-1R,2011-042A,2026-07-07T12:13:01.431840,1.00276509,.0002967,0.7384,84.4117,358.0923,64.2702,0,U,37779,999,5468,0,.168E-5,0
HAIYANG-2A,2011-043A,2026-07-07T13:43:57.776736,13.73675786,.0003837,99.3406,190.7877,52.2047,307.9449,0,U,37781,999,74945,.62281E-4,.15E-6,0
NIGERIASAT-2,2011-044B,2026-07-07T11:41:46.467168,14.70535999,.0031405,97.8792,164.9870,58.5215,38.9424,0,U,37789,999,79355,.11376E-3,.647E-5,0
NIGERIASAT-X,2011-044C,2026-07-07T09:49:07.264704,14.60881234,.0010805,97.8556,171.5494,271.4447,88.5516,0,U,37790,999,79312,.65858E-4,.278E-5,0
RASAT,2011-044D,2026-07-07T13:18:44.083296,14.68187991,.0021678,98.0576,279.6416,125.6053,293.7283,0,U,37791,999,79617,.89005E-4,.465E-5,0
APRIZESAT 5,2011-044E,2026-07-06T17:37:13.470816,14.81117103,.0050926,98.2450,121.3291,300.6841,58.9357,0,U,37792,999,80168,.11993E-3,.892E-5,0
APRIZESAT 6,2011-044F,2026-07-07T05:15:30.925152,14.76948332,.0043694,98.2347,99.1265,23.5847,136.8949,0,U,37793,999,80010,.10625E-3,.703E-5,0
SES-2,2011-049A,2026-07-07T11:37:17.828832,1.00271009,.0002778,0.1074,92.2717,14.0023,266.5041,0,U,37809,999,5416,0,-.181E-5,0
ARABSAT-5C,2011-049B,2026-07-07T12:07:52.398048,1.00274722,.0003694,0.0468,359.6591,127.6023,0.1909,0,U,37810,999,5424,0,.139E-5,0
EUTELSAT 7 WEST A,2011-051A,2026-07-06T13:45:21.976128,1.00271287,.0004596,0.0623,15.3093,101.4574,6.8105,0,U,37816,999,5407,0,-.46E-6,0
